[{"OBJECT_NAME":"HULIANWANG DIGUI-91","OBJECT_ID":"2025-231E","EPOCH":"2026-03-09T19:52:38.215776","MEAN_MOTION":13.29330487,"ECCENTRICITY":6.352e-5,"INCLINATION":50.0007,"RA_OF_ASC_NODE":172.0243,"ARG_OF_PERICENTER":210.0735,"MEAN_ANOMALY":150.01,"EPHEMERIS_TYPE":0,"CLASSIFICATION_TYPE":"U","NORAD_CAT_ID":65999,"ELEMENT_SET_NO":999,"REV_AT_EPOCH":1967,"BSTAR":0.00010788563,"MEAN_MOTION_DOT":-7.4e-7,"MEAN_MOTION_DDOT":0},{"OBJECT_NAME":"THORAD AGENA D DEB","OBJECT_ID":"1970-025AD","EPOCH":"2026-03-09T10:47:15.707040","MEAN_MOTION":12.86604862,"ECCENTRICITY":0.03294111,"INCLINATION":99.9018,"RA_OF_ASC_NODE":129.6922,"ARG_OF_PERICENTER":106.1008,"MEAN_ANOMALY":274.7687,"EPHEMERIS_TYPE":0,"CLASSIFICATION_TYPE":"U","NORAD_CAT_ID":4645,"ELEMENT_SET_NO":999,"REV_AT_EPOCH":62260,"BSTAR":0.00016541693,"MEAN_MOTION_DOT":1.7e-7,"MEAN_MOTION_DDOT":0}]
